{
  "type": "FeatureCollection",
  "features": [
    {
      "type": "Feature",
      "properties": {
        "norad_id": 66516,
        "name": "STARLINK-35924",
        "group": "last-30-days",
        "lat": -16.427482069979604,
        "lon": 3.674824311206907,
        "alt_km": 445.2412959383373,
        "timestamp": "2025-12-18T07:01:53.339341+00:00",
        "meta_object_name": "STARLINK-35924",
        "meta_object_id": "2025-265A",
        "meta_epoch": "2025-12-17T10:54:39.486816",
        "meta_mean_motion": 15.40680292,
        "meta_eccentricity": 0.00011071,
        "meta_inclination": 43.0005,
        "meta_ra_of_asc_node": 26.952,
        "meta_arg_of_pericenter": 267.9232,
        "meta_mean_anomaly": 92.1498,
        "meta_ephemeris_type": 0,
        "meta_classification_type": "U",
        "meta_norad_cat_id": 66516,
        "meta_element_set_no": 999,
        "meta_rev_at_epoch": 448,
        "meta_bstar": 0.00066769215,
        "meta_mean_motion_dot": 0.0002767,
        "meta_mean_motion_ddot": 0,
        "tle_line1": "1 66516U 25265A   25351.45462369  .00027670  00000+0  66769-3 0  9997",
        "tle_line2": "2 66516  43.0005  26.9520 0001107 267.9232  92.1498 15.40680292  4488"
      },
      "geometry": {
        "type": "Point",
        "coordinates": [
          3.674824311206907,
          -16.427482069979604
        ]
      }
    },
    {
      "type": "Feature",
      "properties": {
        "norad_id": 66517,
        "name": "STARLINK-35937",
        "group": "last-30-days",
        "lat": 12.043656005942758,
        "lon": -171.56736751571523,
        "alt_km": 442.70579057007035,
        "timestamp": "2025-12-18T07:01:53.339396+00:00",
        "meta_object_name": "STARLINK-35937",
        "meta_object_id": "2025-265B",
        "meta_epoch": "2025-12-18T00:00:02.000160",
        "meta_mean_motion": 15.40635002,
        "meta_eccentricity": 0.00017448,
        "meta_inclination": 43.0002,
        "meta_ra_of_asc_node": 23.3566,
        "meta_arg_of_pericenter": 277.1728,
        "meta_mean_anomaly": 58.1737,
        "meta_ephemeris_type": 0,
        "meta_classification_type": "U",
        "meta_norad_cat_id": 66517,
        "meta_element_set_no": 999,
        "meta_rev_at_epoch": 584,
        "meta_bstar": 0.0019209565,
        "meta_mean_motion_dot": 0.00080618,
        "meta_mean_motion_ddot": 0,
        "tle_line1": "1 66517U 25265B   25352.00002315  .00080618  00000+0  19210-2 0  9990",
        "tle_line2": "2 66517  43.0002  23.3566 0001744 277.1728  58.1737 15.40635002  5845"
      },
      "geometry": {
        "type": "Point",
        "coordinates": [
          -171.56736751571523,
          12.043656005942758
        ]
      }
    },
    {
      "type": "Feature",
      "properties": {
        "norad_id": 66518,
        "name": "STARLINK-35962",
        "group": "last-30-days",
        "lat": 41.19369734915568,
        "lon": 91.8013239141692,
        "alt_km": 438.63638305827226,
        "timestamp": "2025-12-18T07:01:53.339414+00:00",
        "meta_object_name": "STARLINK-35962",
        "meta_object_id": "2025-265C",
        "meta_epoch": "2025-12-18T00:00:02.000160",
        "meta_mean_motion": 15.40641049,
        "meta_eccentricity": 0.00015817,
        "meta_inclination": 43.0007,
        "meta_ra_of_asc_node": 23.5684,
        "meta_arg_of_pericenter": 254.484,
        "meta_mean_anomaly": 353.795,
        "meta_ephemeris_type": 0,
        "meta_classification_type": "U",
        "meta_norad_cat_id": 66518,
        "meta_element_set_no": 999,
        "meta_rev_at_epoch": 584,
        "meta_bstar": 0.0014584828,
        "meta_mean_motion_dot": 0.0006099,
        "meta_mean_motion_ddot": 0,
        "tle_line1": "1 66518U 25265C   25352.00002315  .00060990  00000+0  14585-2 0  9992",
        "tle_line2": "2 66518  43.0007  23.5684 0001581 254.4840 353.7950 15.40641049  5845"
      },
      "geometry": {
        "type": "Point",
        "coordinates": [
          91.8013239141692,
          41.19369734915568
        ]
      }
    },
    {
      "type": "Feature",
      "properties": {
        "norad_id": 66519,
        "name": "STARLINK-35931",
        "group": "last-30-days",
        "lat": -25.119343550126136,
        "lon": -128.26075365675962,
        "alt_km": 416.7278726374925,
        "timestamp": "2025-12-18T07:01:53.339427+00:00",
        "meta_object_name": "STARLINK-35931",
        "meta_object_id": "2025-265D",
        "meta_epoch": "2025-12-17T11:32:34.790208",
        "meta_mean_motion": 15.5058288,
        "meta_eccentricity": 0.00018413,
        "meta_inclination": 42.9979,
        "meta_ra_of_asc_node": 26.2806,
        "meta_arg_of_pericenter": 290.0106,
        "meta_mean_anomaly": 70.0556,
        "meta_ephemeris_type": 0,
        "meta_classification_type": "U",
        "meta_norad_cat_id": 66519,
        "meta_element_set_no": 999,
        "meta_rev_at_epoch": 449,
        "meta_bstar": 0.0013422359,
        "meta_mean_motion_dot": 0.00079214,
        "meta_mean_motion_ddot": 0,
        "tle_line1": "1 66519U 25265D   25351.48095822  .00079214  00000+0  13422-2 0  9997",
        "tle_line2": "2 66519  42.9979  26.2806 0001841 290.0106  70.0556 15.50582880  4497"
      },
      "geometry": {
        "type": "Point",
        "coordinates": [
          -128.26075365675962,
          -25.119343550126136
        ]
      }
    },
    {
      "type": "Feature",
      "properties": {
        "norad_id": 66520,
        "name": "STARLINK-35952",
        "group": "last-30-days",
        "lat": 17.025637721309725,
        "lon": 41.18084721969124,
        "alt_km": 441.85876165232366,
        "timestamp": "2025-12-18T07:01:53.339440+00:00",
        "meta_object_name": "STARLINK-35952",
        "meta_object_id": "2025-265E",
        "meta_epoch": "2025-12-17T12:15:06.089760",
        "meta_mean_motion": 15.40728181,
        "meta_eccentricity": 0.00022149,
        "meta_inclination": 43.0009,
        "meta_ra_of_asc_node": 26.5074,
        "meta_arg_of_pericenter": 259.4071,
        "meta_mean_anomaly": 100.6536,
        "meta_ephemeris_type": 0,
        "meta_classification_type": "U",
        "meta_norad_cat_id": 66520,
        "meta_element_set_no": 999,
        "meta_rev_at_epoch": 449,
        "meta_bstar": 0.00093596783,
        "meta_mean_motion_dot": 0.00039032,
        "meta_mean_motion_ddot": 0,
        "tle_line1": "1 66520U 25265E   25351.51048715  .00039032  00000+0  93597-3 0  9998",
        "tle_line2": "2 66520  43.0009  26.5074 0002214 259.4071 100.6536 15.40728181  4493"
      },
      "geometry": {
        "type": "Point",
        "coordinates": [
          41.18084721969124,
          17.025637721309725
        ]
      }
    },
    {
      "type": "Feature",
      "properties": {
        "norad_id": 66521,
        "name": "STARLINK-35915",
        "group": "last-30-days",
        "lat": 39.07616178598618,
        "lon": 141.17285930006062,
        "alt_km": 438.39560467773117,
        "timestamp": "2025-12-18T07:01:53.339456+00:00",
        "meta_object_name": "STARLINK-35915",
        "meta_object_id": "2025-265F",
        "meta_epoch": "2025-12-18T00:00:02.000160",
        "meta_mean_motion": 15.4066777,
        "meta_eccentricity": 0.00011179,
        "meta_inclination": 43.0008,
        "meta_ra_of_asc_node": 23.4765,
        "meta_arg_of_pericenter": 250.603,
        "meta_mean_anomaly": 34.9672,
        "meta_ephemeris_type": 0,
        "meta_classification_type": "U",
        "meta_norad_cat_id": 66521,
        "meta_element_set_no": 999,
        "meta_rev_at_epoch": 584,
        "meta_bstar": 0.0014489124,
        "meta_mean_motion_dot": 0.00060638,
        "meta_mean_motion_ddot": 0,
        "tle_line1": "1 66521U 25265F   25352.00002315  .00060638  00000+0  14489-2 0  9998",
        "tle_line2": "2 66521  43.0008  23.4765 0001117 250.6030  34.9672 15.40667770  5841"
      },
      "geometry": {
        "type": "Point",
        "coordinates": [
          141.17285930006062,
          39.07616178598618
        ]
      }
    },
    {
      "type": "Feature",
      "properties": {
        "norad_id": 66522,
        "name": "STARLINK-35946",
        "group": "last-30-days",
        "lat": -15.879275604593541,
        "lon": -140.6609029833426,
        "alt_km": 429.78863996850305,
        "timestamp": "2025-12-18T07:01:53.339469+00:00",
        "meta_object_name": "STARLINK-35946",
        "meta_object_id": "2025-265G",
        "meta_epoch": "2025-12-17T11:33:06.827328",
        "meta_mean_motion": 15.46651991,
        "meta_eccentricity": 0.00018476,
        "meta_inclination": 43.0026,
        "meta_ra_of_asc_node": 26.2841,
        "meta_arg_of_pericenter": 266.7285,
        "meta_mean_anomaly": 93.3363,
        "meta_ephemeris_type": 0,
        "meta_classification_type": "U",
        "meta_norad_cat_id": 66522,
        "meta_element_set_no": 999,
        "meta_rev_at_epoch": 449,
        "meta_bstar": -0.0089913208,
        "meta_mean_motion_dot": -0.00435024,
        "meta_mean_motion_ddot": 0,
        "tle_line1": "1 66522U 25265G   25351.48132902 -.00435024  00000+0 -89913-2 0  9997",
        "tle_line2": "2 66522  43.0026  26.2841 0001847 266.7285  93.3363 15.46651991  4498"
      },
      "geometry": {
        "type": "Point",
        "coordinates": [
          -140.6609029833426,
          -15.879275604593541
        ]
      }
    }
  ]
}